{
  "type": "FeatureCollection",
  "features": [
    {
      "type": "Feature",
      "properties": {
        "norad_id": 30469,
        "name": "FENGYUN 1C DEB",
        "group": "fengyun-1c-debris",
        "lat": -37.41611610508426,
        "lon": 19.306282389668972,
        "alt_km": 878.0078341444605,
        "timestamp": "2025-12-21T20:41:08.237663+00:00",
        "meta_object_name": "FENGYUN 1C DEB",
        "meta_object_id": "1999-025AGG",
        "meta_epoch": "2025-12-21T09:55:20.155008",
        "meta_mean_motion": 13.96533889,
        "meta_eccentricity": 0.01586465,
        "meta_inclination": 98.4787,
        "meta_ra_of_asc_node": 205.4451,
        "meta_arg_of_pericenter": 145.3624,
        "meta_mean_anomaly": 337.2453,
        "meta_ephemeris_type": 0,
        "meta_classification_type": "U",
        "meta_norad_cat_id": 30469,
        "meta_element_set_no": 999,
        "meta_rev_at_epoch": 95827,
        "meta_bstar": 0.00074434433,
        "meta_mean_motion_dot": 1.106e-05,
        "meta_mean_motion_ddot": 0,
        "tle_line1": "1 30469U 99025AGG 25355.41342772  .00001106  00000+0  74434-3 0  9999",
        "tle_line2": "2 30469  98.4787 205.4451 0158646 145.3624 337.2453 13.96533889958276"
      },
      "geometry": {
        "type": "Point",
        "coordinates": [
          19.306282389668972,
          -37.41611610508426
        ]
      }
    },
    {
      "type": "Feature",
      "properties": {
        "norad_id": 30471,
        "name": "FENGYUN 1C DEB",
        "group": "fengyun-1c-debris",
        "lat": 28.604255911141866,
        "lon": -91.43533091803954,
        "alt_km": 831.5429477009357,
        "timestamp": "2025-12-21T20:41:08.237671+00:00",
        "meta_object_name": "FENGYUN 1C DEB",
        "meta_object_id": "1999-025AGJ",
        "meta_epoch": "2025-12-21T04:49:13.077120",
        "meta_mean_motion": 14.13675511,
        "meta_eccentricity": 0.00832649,
        "meta_inclination": 99.0542,
        "meta_ra_of_asc_node": 82.9072,
        "meta_arg_of_pericenter": 229.8899,
        "meta_mean_anomaly": 159.5405,
        "meta_ephemeris_type": 0,
        "meta_classification_type": "U",
        "meta_norad_cat_id": 30471,
        "meta_element_set_no": 999,
        "meta_rev_at_epoch": 96562,
        "meta_bstar": 0.0011798705,
        "meta_mean_motion_dot": 2.257e-05,
        "meta_mean_motion_ddot": 0,
        "tle_line1": "1 30471U 99025AGJ 25355.20084580  .00002257  00000+0  11799-2 0  9991",
        "tle_line2": "2 30471  99.0542  82.9072 0083264 229.8899 159.5405 14.13675511965625"
      },
      "geometry": {
        "type": "Point",
        "coordinates": [
          -91.43533091803954,
          28.604255911141866
        ]
      }
    },
    {
      "type": "Feature",
      "properties": {
        "norad_id": 30472,
        "name": "FENGYUN 1C DEB",
        "group": "fengyun-1c-debris",
        "lat": 41.32286668780708,
        "lon": -75.03508761667783,
        "alt_km": 707.804023844612,
        "timestamp": "2025-12-21T20:41:08.237680+00:00",
        "meta_object_name": "FENGYUN 1C DEB",
        "meta_object_id": "1999-025AGK",
        "meta_epoch": "2025-12-21T05:27:48.508128",
        "meta_mean_motion": 14.5393139,
        "meta_eccentricity": 0.0037567,
        "meta_inclination": 98.6523,
        "meta_ra_of_asc_node": 96.6159,
        "meta_arg_of_pericenter": 53.3387,
        "meta_mean_anomaly": 6.3731,
        "meta_ephemeris_type": 0,
        "meta_classification_type": "U",
        "meta_norad_cat_id": 30472,
        "meta_element_set_no": 999,
        "meta_rev_at_epoch": 98164,
        "meta_bstar": 0.0015795,
        "meta_mean_motion_dot": 6.666e-05,
        "meta_mean_motion_ddot": 0,
        "tle_line1": "1 30472U 99025AGK 25355.22764477  .00006666  00000+0  15795-2 0  9992",
        "tle_line2": "2 30472  98.6523  96.6159 0037567  53.3387   6.3731 14.53931390981640"
      },
      "geometry": {
        "type": "Point",
        "coordinates": [
          -75.03508761667783,
          41.32286668780708
        ]
      }
    },
    {
      "type": "Feature",
      "properties": {
        "norad_id": 30474,
        "name": "FENGYUN 1C DEB",
        "group": "fengyun-1c-debris",
        "lat": -26.36653459583508,
        "lon": -109.37222627357556,
        "alt_km": 781.2229708507748,
        "timestamp": "2025-12-21T20:41:08.237689+00:00",
        "meta_object_name": "FENGYUN 1C DEB",
        "meta_object_id": "1999-025AGM",
        "meta_epoch": "2025-12-21T04:56:56.893920",
        "meta_mean_motion": 14.37856671,
        "meta_eccentricity": 0.00230135,
        "meta_inclination": 98.9286,
        "meta_ra_of_asc_node": 74.4162,
        "meta_arg_of_pericenter": 336.1204,
        "meta_mean_anomaly": 78.5978,
        "meta_ephemeris_type": 0,
        "meta_classification_type": "U",
        "meta_norad_cat_id": 30474,
        "meta_element_set_no": 999,
        "meta_rev_at_epoch": 97515,
        "meta_bstar": 0.0014360517,
        "meta_mean_motion_dot": 4.299e-05,
        "meta_mean_motion_ddot": 0,
        "tle_line1": "1 30474U 99025AGM 25355.20621405  .00004299  00000+0  14361-2 0  9993",
        "tle_line2": "2 30474  98.9286  74.4162 0023013 336.1204  78.5978 14.37856671975153"
      },
      "geometry": {
        "type": "Point",
        "coordinates": [
          -109.37222627357556,
          -26.36653459583508
        ]
      }
    },
    {
      "type": "Feature",
      "properties": {
        "norad_id": 30475,
        "name": "FENGYUN 1C DEB",
        "group": "fengyun-1c-debris",
        "lat": -79.98080880887204,
        "lon": 156.15151141200684,
        "alt_km": 816.2706026964515,
        "timestamp": "2025-12-21T20:41:08.237698+00:00",
        "meta_object_name": "FENGYUN 1C DEB",
        "meta_object_id": "1999-025AGN",
        "meta_epoch": "2025-12-21T01:04:03.599040",
        "meta_mean_motion": 14.15703252,
        "meta_eccentricity": 0.00428981,
        "meta_inclination": 98.7873,
        "meta_ra_of_asc_node": 36.4517,
        "meta_arg_of_pericenter": 266.6773,
        "meta_mean_anomaly": 154.8319,
        "meta_ephemeris_type": 0,
        "meta_classification_type": "U",
        "meta_norad_cat_id": 30475,
        "meta_element_set_no": 999,
        "meta_rev_at_epoch": 97069,
        "meta_bstar": 0.00060163023,
        "meta_mean_motion_dot": 1.146e-05,
        "meta_mean_motion_ddot": 0,
        "tle_line1": "1 30475U 99025AGN 25355.04448610  .00001146  00000+0  60163-3 0  9991",
        "tle_line2": "2 30475  98.7873  36.4517 0042898 266.6773 154.8319 14.15703252970699"
      },
      "geometry": {
        "type": "Point",
        "coordinates": [
          156.15151141200684,
          -79.98080880887204
        ]
      }
    },
    {
      "type": "Feature",
      "properties": {
        "norad_id": 30476,
        "name": "FENGYUN 1C DEB",
        "group": "fengyun-1c-debris",
        "lat": -14.563829659719168,
        "lon": -149.0411944581754,
        "alt_km": 820.0703087573993,
        "timestamp": "2025-12-21T20:41:08.237708+00:00",
        "meta_object_name": "FENGYUN 1C DEB",
        "meta_object_id": "1999-025AGP",
        "meta_epoch": "2025-12-21T01:19:07.603968",
        "meta_mean_motion": 14.20955213,
        "meta_eccentricity": 0.0045695,
        "meta_inclination": 99.1242,
        "meta_ra_of_asc_node": 32.5189,
        "meta_arg_of_pericenter": 275.565,
        "meta_mean_anomaly": 113.9677,
        "meta_ephemeris_type": 0,
        "meta_classification_type": "U",
        "meta_norad_cat_id": 30476,
        "meta_element_set_no": 999,
        "meta_rev_at_epoch": 96963,
        "meta_bstar": 0.0010133395,
        "meta_mean_motion_dot": 2.171e-05,
        "meta_mean_motion_ddot": 0,
        "tle_line1": "1 30476U 99025AGP 25355.05494912  .00002171  00000+0  10133-2 0  9999",
        "tle_line2": "2 30476  99.1242  32.5189 0045695 275.5650 113.9677 14.20955213969635"
      },
      "geometry": {
        "type": "Point",
        "coordinates": [
          -149.0411944581754,
          -14.563829659719168
        ]
      }
    },
    {
      "type": "Feature",
      "properties": {
        "norad_id": 30477,
        "name": "FENGYUN 1C DEB",
        "group": "fengyun-1c-debris",
        "lat": -75.21905122466592,
        "lon": -140.95940520394797,
        "alt_km": 849.651100031645,
        "timestamp": "2025-12-21T20:41:08.237717+00:00",
        "meta_object_name": "FENGYUN 1C DEB",
        "meta_object_id": "1999-025AGQ",
        "meta_epoch": "2025-12-21T12:12:28.645632",
        "meta_mean_motion": 13.23853391,
        "meta_eccentricity": 0.04347308,
        "meta_inclination": 99.425,
        "meta_ra_of_asc_node": 77.7325,
        "meta_arg_of_pericenter": 255.9878,
        "meta_mean_anomaly": 119.637,
        "meta_ephemeris_type": 0,
        "meta_classification_type": "U",
        "meta_norad_cat_id": 30477,
        "meta_element_set_no": 999,
        "meta_rev_at_epoch": 90835,
        "meta_bstar": 0.0025572317,
        "meta_mean_motion_dot": 1.761e-05,
        "meta_mean_motion_ddot": 0,
        "tle_line1": "1 30477U 99025AGQ 25355.50866488  .00001761  00000+0  25572-2 0  9998",
        "tle_line2": "2 30477  99.4250  77.7325 0434730 255.9878 119.6370 13.23853391908358"
      },
      "geometry": {
        "type": "Point",
        "coordinates": [
          -140.95940520394797,
          -75.21905122466592
        ]
      }
    }
  ]
}